{
  "norad_id": 62868,
  "name": "STARLINK-32822",
  "history": [
    {
      "epoch": "2026-03-28T14:13:30.938880Z",
      "apogee_km": 475.93879682888837,
      "perigee_km": 474.38172769090306,
      "latitude_deg": -4.942647230440535e-05,
      "longitude_deg": 2.46160466793056,
      "height_km": 476.20562618476066,
      "semi_major_axis_km": 6853.297262259895,
      "eccentricity": 0.0001136,
      "inclination_deg": 53.1609,
      "raan_deg": 41.8515,
      "arg_perigee_deg": 100.8815,
      "mean_anomaly_deg": 259.2313,
      "mean_motion_rev_day": 15.30218356
    },
    {
      "epoch": "2026-03-29T04:19:59.758464Z",
      "apogee_km": 476.002324527135,
      "perigee_km": 474.3630104626691,
      "latitude_deg": -2.3893394370528367e-05,
      "longitude_deg": 147.53414682806712,
      "height_km": 476.15169876595724,
      "semi_major_axis_km": 6853.319667494901,
      "eccentricity": 0.0001196,
      "inclination_deg": 53.161,
      "raan_deg": 39.1235,
      "arg_perigee_deg": 94.9507,
      "mean_anomaly_deg": 265.163,
      "mean_motion_rev_day": 15.30210852
    },
    {
      "epoch": "2026-03-30T02:16:44.448096Z",
      "apogee_km": 475.8556129267017,
      "perigee_km": 474.57677722050084,
      "latitude_deg": 1.2725334896294712e-06,
      "longitude_deg": 173.19817949449504,
      "height_km": 476.0440169633071,
      "semi_major_axis_km": 6853.353195073601,
      "eccentricity": 9.33e-05,
      "inclination_deg": 53.1622,
      "raan_deg": 34.875,
      "arg_perigee_deg": 83.6291,
      "mean_anomaly_deg": 276.4816,
      "mean_motion_rev_day": 15.30199623
    },
    {
      "epoch": "2026-03-30T05:24:51.123744Z",
      "apogee_km": 475.921919207638,
      "perigee_km": 474.58961965326125,
      "latitude_deg": 2.8728043095269225e-05,
      "longitude_deg": 125.43762731731131,
      "height_km": 475.9492185003057,
      "semi_major_axis_km": 6853.392769430449,
      "eccentricity": 9.72e-05,
      "inclination_deg": 53.1612,
      "raan_deg": 34.271,
      "arg_perigee_deg": 72.0576,
      "mean_anomaly_deg": 288.0531,
      "mean_motion_rev_day": 15.30186369
    }
  ]
}